start=new Date('2021-09-21T00:00:00.000Z').valueOf();
sats=[{"LAUNCH_DATE":"2021-05-04","EPHEMERIS_TYPE":"0","EPOCH":"2021-09-20T20:35:20.957280","MEAN_MOTION_DDOT":"0.0000000000000","MEAN_MOTION_DOT":"0.00000747","FILE":"3121356","INCLINATION":"53.0547","OBJECT_ID":"2021-038B","ECCENTRICITY":"0.00021650","BSTAR":"0.00006904800000","OBJECT_NAME":"STARLINK-2674","GP_ID":"185124775","REF_FRAME":"TEME","DECAY_DATE":null,"RA_OF_ASC_NODE":"122.6982","TIME_SYSTEM":"UTC","CLASSIFICATION_TYPE":"U","APOAPSIS":"548.729","MEAN_ELEMENT_THEORY":"SGP4","TLE_LINE1":"1 48354U 21038B   21263.85788145  .00000747  00000-0  69048-4 0  9997","ARG_OF_PERICENTER":"72.5848","PERIOD":"95.592","ELEMENT_SET_NO":"999","SITE":"AFETR","MEAN_MOTION":"15.06394803","CENTER_NAME":"EARTH","OBJECT_TYPE":"PAYLOAD","MEAN_ANOMALY":"287.5378","NORAD_CAT_ID":"48354","SEMIMAJOR_AXIS":"6925.364","COUNTRY_CODE":"US","PERIAPSIS":"545.730","RCS_SIZE":"LARGE","TLE_LINE2":"2 48354  53.0547 122.6982 0002165  72.5848 287.5378 15.06394803 21224","REV_AT_EPOCH":"2122"},{"REV_AT_EPOCH":"2122","TLE_LINE2":"2 48355  53.0552 122.7196 0002346  64.2558 295.8673 15.06391684 21220","RCS_SIZE":"LARGE","PERIAPSIS":"545.614","SEMIMAJOR_AXIS":"6925.374","COUNTRY_CODE":"US","OBJECT_TYPE":"PAYLOAD","MEAN_ANOMALY":"295.8673","NORAD_CAT_ID":"48355","CENTER_NAME":"EARTH","MEAN_MOTION":"15.06391684","ELEMENT_SET_NO":"999","SITE":"AFETR","MEAN_ELEMENT_THEORY":"SGP4","APOAPSIS":"548.864","TLE_LINE1":"1 48355U 21038C   21263.85419726  .00000721  00000-0  67300-4 0  9995","PERIOD":"95.593","ARG_OF_PERICENTER":"64.2558","DECAY_DATE":null,"RA_OF_ASC_NODE":"122.7196","TIME_SYSTEM":"UTC","CLASSIFICATION_TYPE":"U","REF_FRAME":"TEME","GP_ID":"185125312","OBJECT_NAME":"STARLINK-2635","ECCENTRICITY":"0.00023460","BSTAR":"0.00006730000000","FILE":"3121356","INCLINATION":"53.0552","OBJECT_ID":"2021-038C","MEAN_MOTION_DDOT":"0.0000000000000","MEAN_MOTION_DOT":"0.00000721","LAUNCH_DATE":"2021-05-04","EPHEMERIS_TYPE":"0","EPOCH":"2021-09-20T20:30:02.643264"},{"SITE":"AFETR","ELEMENT_SET_NO":"999","PERIOD":"95.593","ARG_OF_PERICENTER":"63.4518","MEAN_ELEMENT_THEORY":"SGP4","APOAPSIS":"548.422","TLE_LINE1":"1 48356U 21038D   21263.91687271 -.00001373  00000-0 -73338-4 0  9999","NORAD_CAT_ID":"48356","OBJECT_TYPE":"PAYLOAD","MEAN_ANOMALY":"296.6646","MEAN_MOTION":"15.06391397","CENTER_NAME":"EARTH","PERIAPSIS":"546.058","SEMIMAJOR_AXIS":"6925.375","COUNTRY_CODE":"US","REV_AT_EPOCH":"2123","RCS_SIZE":"LARGE","TLE_LINE2":"2 48356  53.0657 122.3523 0001707  63.4518 296.6646 15.06391397 21235","MEAN_MOTION_DDOT":"0.0000000000000","MEAN_MOTION_DOT":"-0.00001373","EPHEMERIS_TYPE":"0","EPOCH":"2021-09-20T22:00:17.802144","LAUNCH_DATE":"2021-05-04","BSTAR":"-0.00007333800000","ECCENTRICITY":"0.00017070","FILE":"3121356","INCLINATION":"53.0657","OBJECT_ID":"2021-038D","GP_ID":"185124882","OBJECT_NAME":"STARLINK-2637","TIME_SYSTEM":"UTC","CLASSIFICATION_TYPE":"U","DECAY_DATE":null,"RA_OF_ASC_NODE":"122.3523","REF_FRAME":"TEME"},{"SITE":"AFETR","ELEMENT_SET_NO":"999","PERIOD":"95.593","ARG_OF_PERICENTER":"72.0902","TLE_LINE1":"1 48357U 21038E   21263.91318422 -.00001171  00000-0 -59698-4 0  9998","APOAPSIS":"548.913","MEAN_ELEMENT_THEORY":"SGP4","NORAD_CAT_ID":"48357","MEAN_ANOMALY":"288.0347","OBJECT_TYPE":"PAYLOAD","MEAN_MOTION":"15.06384383","CENTER_NAME":"EARTH","PERIAPSIS":"545.610","SEMIMAJOR_AXIS":"6925.396","COUNTRY_CODE":"US","REV_AT_EPOCH":"2123","TLE_LINE2":"2 48357  53.0547 122.4499 0002385  72.0902 288.0347 15.06384383 21233","RCS_SIZE":"LARGE","MEAN_MOTION_DOT":"-0.00001171","MEAN_MOTION_DDOT":"0.0000000000000","EPOCH":"2021-09-20T21:54:59.116608","EPHEMERIS_TYPE":"0","LAUNCH_DATE":"2021-05-04","BSTAR":"-0.00005969800000","ECCENTRICITY":"0.00023850","INCLINATION":"53.0547","OBJECT_ID":"2021-038E","FILE":"3121356","GP_ID":"185124990","OBJECT_NAME":"STARLINK-2636","CLASSIFICATION_TYPE":"U","TIME_SYSTEM":"UTC","RA_OF_ASC_NODE":"122.4499","DECAY_DATE":null,"REF_FRAME":"TEME"},{"LAUNCH_DATE":"2021-05-04","EPHEMERIS_TYPE":"0","EPOCH":"2021-09-20T21:49:39.915264","MEAN_MOTION_DDOT":"0.0000000000000","MEAN_MOTION_DOT":"-0.00000808","FILE":"3121356","INCLINATION":"53.0517","OBJECT_ID":"2021-038F","ECCENTRICITY":"0.00021880","BSTAR":"-0.00003530100000","OBJECT_NAME":"STARLINK-2624","GP_ID":"185125098","REF_FRAME":"TEME","DECAY_DATE":null,"RA_OF_ASC_NODE":"122.4869","TIME_SYSTEM":"UTC","CLASSIFICATION_TYPE":"U","APOAPSIS":"548.742","MEAN_ELEMENT_THEORY":"SGP4","TLE_LINE1":"1 48358U 21038F   21263.90948976 -.00000808  00000-0 -35301-4 0  9992","ARG_OF_PERICENTER":"73.5889","PERIOD":"95.592","SITE":"AFETR","ELEMENT_SET_NO":"999","MEAN_MOTION":"15.06395856","CENTER_NAME":"EARTH","OBJECT_TYPE":"PAYLOAD","MEAN_ANOMALY":"286.5340","NORAD_CAT_ID":"48358","SEMIMAJOR_AXIS":"6925.361","COUNTRY_CODE":"US","PERIAPSIS":"545.711","TLE_LINE2":"2 48358  53.0517 122.4869 0002188  73.5889 286.5340 15.06395856 21225","RCS_SIZE":"LARGE","REV_AT_EPOCH":"2122"},{"MEAN_MOTION":"15.06389692","CENTER_NAME":"EARTH","NORAD_CAT_ID":"48359","MEAN_ANOMALY":"281.3541","OBJECT_TYPE":"PAYLOAD","ARG_OF_PERICENTER":"78.7693","PERIOD":"95.593","TLE_LINE1":"1 48359U 21038G   21263.90581447 -.00001316  00000-0 -69450-4 0  9996","APOAPSIS":"548.752","MEAN_ELEMENT_THEORY":"SGP4","ELEMENT_SET_NO":"999","SITE":"AFETR","TLE_LINE2":"2 48359  53.0529 122.4805 0002176  78.7693 281.3541 15.06389692 21223","RCS_SIZE":"LARGE","REV_AT_EPOCH":"2122","COUNTRY_CODE":"US","SEMIMAJOR_AXIS":"6925.380","PERIAPSIS":"545.738","OBJECT_ID":"2021-038G","INCLINATION":"53.0529","FILE":"3121356","BSTAR":"-0.00006945000000","ECCENTRICITY":"0.00021760","EPOCH":"2021-09-20T21:44:22.370208","EPHEMERIS_TYPE":"0","LAUNCH_DATE":"2021-05-04","MEAN_MOTION_DOT":"-0.00001316","MEAN_MOTION_DDOT":"0.0000000000000","REF_FRAME":"TEME","CLASSIFICATION_TYPE":"U","TIME_SYSTEM":"UTC","RA_OF_ASC_NODE":"122.4805","DECAY_DATE":null,"OBJECT_NAME":"STARLINK-2628","GP_ID":"185125313"},{"NORAD_CAT_ID":"48360","MEAN_ANOMALY":"292.6163","OBJECT_TYPE":"PAYLOAD","MEAN_MOTION":"15.06401611","CENTER_NAME":"EARTH","ELEMENT_SET_NO":"999","SITE":"AFETR","ARG_OF_PERICENTER":"67.5057","PERIOD":"95.592","TLE_LINE1":"1 48360U 21038H   21263.90211650  .00000914  00000-0  80266-4 0  9993","APOAPSIS":"548.720","MEAN_ELEMENT_THEORY":"SGP4","REV_AT_EPOCH":"2122","RCS_SIZE":"LARGE","TLE_LINE2":"2 48360  53.0542 122.4932 0002183  67.5057 292.6163 15.06401611 21220","PERIAPSIS":"545.697","COUNTRY_CODE":"US","SEMIMAJOR_AXIS":"6925.344","BSTAR":"0.00008026600000","ECCENTRICITY":"0.00021830","INCLINATION":"53.0542","OBJECT_ID":"2021-038H","FILE":"3121356","MEAN_MOTION_DOT":"0.00000914","MEAN_MOTION_DDOT":"0.0000000000000","EPOCH":"2021-09-20T21:39:02.865600","EPHEMERIS_TYPE":"0","LAUNCH_DATE":"2021-05-04","CLASSIFICATION_TYPE":"U","TIME_SYSTEM":"UTC","RA_OF_ASC_NODE":"122.4932","DECAY_DATE":null,"REF_FRAME":"TEME","GP_ID":"185125206","OBJECT_NAME":"STARLINK-2622"},{"GP_ID":"185124669","OBJECT_NAME":"STARLINK-2591","CLASSIFICATION_TYPE":"U","TIME_SYSTEM":"UTC","RA_OF_ASC_NODE":"122.5963","DECAY_DATE":null,"REF_FRAME":"TEME","MEAN_MOTION_DOT":"0.00000795","MEAN_MOTION_DDOT":"0.0000000000000","EPOCH":"2021-09-20T21:33:43.954560","EPHEMERIS_TYPE":"0","LAUNCH_DATE":"2021-05-04","BSTAR":"0.00007230700000","ECCENTRICITY":"0.00016290","INCLINATION":"53.0540","OBJECT_ID":"2021-038J","FILE":"3121356","PERIAPSIS":"546.099","COUNTRY_CODE":"US","SEMIMAJOR_AXIS":"6925.363","REV_AT_EPOCH":"2122","RCS_SIZE":"LARGE","TLE_LINE2":"2 48361  53.0540 122.5963 0001629  91.3820 268.7356 15.06395429 21228","SITE":"AFETR","ELEMENT_SET_NO":"999","ARG_OF_PERICENTER":"91.3820","PERIOD":"95.592","TLE_LINE1":"1 48361U 21038J   21263.89842540  .00000795  00000-0  72307-4 0  9994","MEAN_ELEMENT_THEORY":"SGP4","APOAPSIS":"548.356","NORAD_CAT_ID":"48361","MEAN_ANOMALY":"268.7356","OBJECT_TYPE":"PAYLOAD","MEAN_MOTION":"15.06395429","CENTER_NAME":"EARTH"},{"APOAPSIS":"553.785","MEAN_ELEMENT_THEORY":"SGP4","TLE_LINE1":"1 48362U 21038K   21263.87943039  .00000604  00000-0  61810-4 0  9994","ARG_OF_PERICENTER":"72.8464","PERIOD":"95.696","ELEMENT_SET_NO":"999","SITE":"AFETR","CENTER_NAME":"EARTH","MEAN_MOTION":"15.04772156","OBJECT_TYPE":"PAYLOAD","MEAN_ANOMALY":"287.2774","NORAD_CAT_ID":"48362","COUNTRY_CODE":"US","SEMIMAJOR_AXIS":"6930.342","PERIAPSIS":"550.630","TLE_LINE2":"2 48362  53.0538 122.0857 0002276  72.8464 287.2774 15.04772156 21235","RCS_SIZE":"LARGE","REV_AT_EPOCH":"2123","LAUNCH_DATE":"2021-05-04","EPHEMERIS_TYPE":"0","EPOCH":"2021-09-20T21:06:22.785696","MEAN_MOTION_DDOT":"0.0000000000000","MEAN_MOTION_DOT":"0.00000604","FILE":"3121356","INCLINATION":"53.0538","OBJECT_ID":"2021-038K","ECCENTRICITY":"0.00022760","BSTAR":"0.00006181000000","OBJECT_NAME":"STARLINK-2578","GP_ID":"185124776","REF_FRAME":"TEME","DECAY_DATE":null,"RA_OF_ASC_NODE":"122.0857","TIME_SYSTEM":"UTC","CLASSIFICATION_TYPE":"U"},{"SITE":"AFETR","ELEMENT_SET_NO":"999","MEAN_ELEMENT_THEORY":"SGP4","APOAPSIS":"548.479","TLE_LINE1":"1 48363U 21038L   21263.87492677  .00000221  00000-0  33768-4 0  9998","PERIOD":"95.592","ARG_OF_PERICENTER":"88.9032","OBJECT_TYPE":"PAYLOAD","MEAN_ANOMALY":"271.2168","NORAD_CAT_ID":"48363","CENTER_NAME":"EARTH","MEAN_MOTION":"15.06402738","PERIAPSIS":"545.932","SEMIMAJOR_AXIS":"6925.340","COUNTRY_CODE":"US","REV_AT_EPOCH":"2129","TLE_LINE2":"2 48363  53.0550 117.6143 0001839  88.9032 271.2168 15.06402738 21295","RCS_SIZE":"LARGE","MEAN_MOTION_DDOT":"0.0000000000000","MEAN_MOTION_DOT":"0.00000221","LAUNCH_DATE":"2021-05-04","EPHEMERIS_TYPE":"0","EPOCH":"2021-09-20T20:59:53.672928","ECCENTRICITY":"0.00018390","BSTAR":"0.00003376800000","FILE":"3121356","INCLINATION":"53.0550","OBJECT_ID":"2021-038L","GP_ID":"185125420","OBJECT_NAME":"STARLINK-2626","DECAY_DATE":null,"RA_OF_ASC_NODE":"117.6143","TIME_SYSTEM":"UTC","CLASSIFICATION_TYPE":"U","REF_FRAME":"TEME"}];
